{
  "type": "FeatureCollection",
  "features": [
    {
      "type": "Feature",
      "properties": {
        "norad_id": 31826,
        "name": "FENGYUN 1C DEB",
        "group": "fengyun-1c-debris",
        "lat": -62.256245828669854,
        "lon": -11.15912311205142,
        "alt_km": 833.8316028082272,
        "timestamp": "2025-12-06T18:50:10.452744+00:00",
        "meta_object_name": "FENGYUN 1C DEB",
        "meta_object_id": "1999-025CHQ",
        "meta_epoch": "2025-12-05T22:58:40.442592",
        "meta_mean_motion": 14.19257749,
        "meta_eccentricity": 0.01236647,
        "meta_inclination": 98.6256,
        "meta_ra_of_asc_node": 331.2622,
        "meta_arg_of_pericenter": 208.9589,
        "meta_mean_anomaly": 180.9193,
        "meta_ephemeris_type": 0,
        "meta_classification_type": "U",
        "meta_norad_cat_id": 31826,
        "meta_element_set_no": 999,
        "meta_rev_at_epoch": 95718,
        "meta_bstar": 0.00059164536,
        "meta_mean_motion_dot": 1.296e-05,
        "meta_mean_motion_ddot": 0,
        "tle_line1": "1 31826U 99025CHQ 25339.95741253  .00001296  00000+0  59165-3 0  9999",
        "tle_line2": "2 31826  98.6256 331.2622 0123664 208.9589 180.9193 14.19257749957180"
      },
      "geometry": {
        "type": "Point",
        "coordinates": [
          -11.15912311205142,
          -62.256245828669854
        ]
      }
    },
    {
      "type": "Feature",
      "properties": {
        "norad_id": 31829,
        "name": "FENGYUN 1C DEB",
        "group": "fengyun-1c-debris",
        "lat": 56.424310931893984,
        "lon": 137.36716996751215,
        "alt_km": 993.8727285543127,
        "timestamp": "2025-12-06T18:50:10.452754+00:00",
        "meta_object_name": "FENGYUN 1C DEB",
        "meta_object_id": "1999-025CHT",
        "meta_epoch": "2025-12-03T06:39:41.312736",
        "meta_mean_motion": 13.8866372,
        "meta_eccentricity": 0.0168978,
        "meta_inclination": 98.8353,
        "meta_ra_of_asc_node": 147.5933,
        "meta_arg_of_pericenter": 190.204,
        "meta_mean_anomaly": 344.9165,
        "meta_ephemeris_type": 0,
        "meta_classification_type": "U",
        "meta_norad_cat_id": 31829,
        "meta_element_set_no": 999,
        "meta_rev_at_epoch": 94016,
        "meta_bstar": 0.00067055,
        "meta_mean_motion_dot": 8.64e-06,
        "meta_mean_motion_ddot": 0,
        "tle_line1": "1 31829U 99025CHT 25337.27756149  .00000864  00000+0  67055-3 0  9992",
        "tle_line2": "2 31829  98.8353 147.5933 0168978 190.2040 344.9165 13.88663720940164"
      },
      "geometry": {
        "type": "Point",
        "coordinates": [
          137.36716996751215,
          56.424310931893984
        ]
      }
    },
    {
      "type": "Feature",
      "properties": {
        "norad_id": 31830,
        "name": "FENGYUN 1C DEB",
        "group": "fengyun-1c-debris",
        "lat": 0.5620417971370897,
        "lon": -93.28923370760484,
        "alt_km": 1071.1047845671092,
        "timestamp": "2025-12-06T18:50:10.452764+00:00",
        "meta_object_name": "FENGYUN 1C DEB",
        "meta_object_id": "1999-025CHU",
        "meta_epoch": "2025-12-02T06:36:37.177056",
        "meta_mean_motion": 13.83353348,
        "meta_eccentricity": 0.0181639,
        "meta_inclination": 99.1637,
        "meta_ra_of_asc_node": 82.2262,
        "meta_arg_of_pericenter": 342.8195,
        "meta_mean_anomaly": 72.1801,
        "meta_ephemeris_type": 0,
        "meta_classification_type": "U",
        "meta_norad_cat_id": 31830,
        "meta_element_set_no": 999,
        "meta_rev_at_epoch": 92595,
        "meta_bstar": 0.0020067,
        "meta_mean_motion_dot": 2.461e-05,
        "meta_mean_motion_ddot": 0,
        "tle_line1": "1 31830U 99025CHU 25336.27543029  .00002461  00000+0  20067-2 0  9990",
        "tle_line2": "2 31830  99.1637  82.2262 0181639 342.8195  72.1801 13.83353348925954"
      },
      "geometry": {
        "type": "Point",
        "coordinates": [
          -93.28923370760484,
          0.5620417971370897
        ]
      }
    },
    {
      "type": "Feature",
      "properties": {
        "norad_id": 31834,
        "name": "FENGYUN 1C DEB",
        "group": "fengyun-1c-debris",
        "lat": -80.44320090394955,
        "lon": -39.50885675658193,
        "alt_km": 1006.9095143196009,
        "timestamp": "2025-12-06T18:50:10.452774+00:00",
        "meta_object_name": "FENGYUN 1C DEB",
        "meta_object_id": "1999-025CHY",
        "meta_epoch": "2025-12-05T21:02:55.121568",
        "meta_mean_motion": 14.03144682,
        "meta_eccentricity": 0.01626696,
        "meta_inclination": 98.369,
        "meta_ra_of_asc_node": 200.6234,
        "meta_arg_of_pericenter": 96.9001,
        "meta_mean_anomaly": 265.0702,
        "meta_ephemeris_type": 0,
        "meta_classification_type": "U",
        "meta_norad_cat_id": 31834,
        "meta_element_set_no": 999,
        "meta_rev_at_epoch": 63614,
        "meta_bstar": 0.00034844542,
        "meta_mean_motion_dot": 5.72e-06,
        "meta_mean_motion_ddot": 0,
        "tle_line1": "1 31834U 99025CHY 25339.87702687  .00000572  00000+0  34845-3 0  9991",
        "tle_line2": "2 31834  98.3690 200.6234 0162669  96.9001 265.0702 14.03144682636143"
      },
      "geometry": {
        "type": "Point",
        "coordinates": [
          -39.50885675658193,
          -80.44320090394955
        ]
      }
    },
    {
      "type": "Feature",
      "properties": {
        "norad_id": 31837,
        "name": "FENGYUN 1C DEB",
        "group": "fengyun-1c-debris",
        "lat": -78.10282870795535,
        "lon": 98.79840825807673,
        "alt_km": 660.9074721197585,
        "timestamp": "2025-12-06T18:50:10.452784+00:00",
        "meta_object_name": "FENGYUN 1C DEB",
        "meta_object_id": "1999-025CJB",
        "meta_epoch": "2025-12-05T10:47:40.062336",
        "meta_mean_motion": 14.82043908,
        "meta_eccentricity": 0.00944303,
        "meta_inclination": 98.1022,
        "meta_ra_of_asc_node": 54.9022,
        "meta_arg_of_pericenter": 41.3636,
        "meta_mean_anomaly": 319.4677,
        "meta_ephemeris_type": 0,
        "meta_classification_type": "U",
        "meta_norad_cat_id": 31837,
        "meta_element_set_no": 999,
        "meta_rev_at_epoch": 98251,
        "meta_bstar": 0.0019333093,
        "meta_mean_motion_dot": 0.00016567,
        "meta_mean_motion_ddot": 0,
        "tle_line1": "1 31837U 99025CJB 25339.44976924  .00016567  00000+0  19333-2 0  9999",
        "tle_line2": "2 31837  98.1022  54.9022 0094430  41.3636 319.4677 14.82043908982512"
      },
      "geometry": {
        "type": "Point",
        "coordinates": [
          98.79840825807673,
          -78.10282870795535
        ]
      }
    },
    {
      "type": "Feature",
      "properties": {
        "norad_id": 31838,
        "name": "FENGYUN 1C DEB",
        "group": "fengyun-1c-debris",
        "lat": 29.667906657528203,
        "lon": 26.53991863811108,
        "alt_km": 816.1913760025027,
        "timestamp": "2025-12-06T18:50:10.452796+00:00",
        "meta_object_name": "FENGYUN 1C DEB",
        "meta_object_id": "1999-025CJC",
        "meta_epoch": "2025-12-05T22:59:48.079104",
        "meta_mean_motion": 14.21102574,
        "meta_eccentricity": 0.00387014,
        "meta_inclination": 98.7197,
        "meta_ra_of_asc_node": 30.7395,
        "meta_arg_of_pericenter": 114.7357,
        "meta_mean_anomaly": 9.1246,
        "meta_ephemeris_type": 0,
        "meta_classification_type": "U",
        "meta_norad_cat_id": 31838,
        "meta_element_set_no": 999,
        "meta_rev_at_epoch": 64480,
        "meta_bstar": 0.0011544907,
        "meta_mean_motion_dot": 2.484e-05,
        "meta_mean_motion_ddot": 0,
        "tle_line1": "1 31838U 99025CJC 25339.95819536  .00002484  00000+0  11545-2 0  9991",
        "tle_line2": "2 31838  98.7197  30.7395 0038701 114.7357   9.1246 14.21102574644801"
      },
      "geometry": {
        "type": "Point",
        "coordinates": [
          26.53991863811108,
          29.667906657528203
        ]
      }
    },
    {
      "type": "Feature",
      "properties": {
        "norad_id": 31841,
        "name": "FENGYUN 1C DEB",
        "group": "fengyun-1c-debris",
        "lat": -75.60702194334232,
        "lon": -174.8071583049813,
        "alt_km": 715.9757641336591,
        "timestamp": "2025-12-06T18:50:10.452806+00:00",
        "meta_object_name": "FENGYUN 1C DEB",
        "meta_object_id": "1999-025CJF",
        "meta_epoch": "2025-12-06T06:21:25.793568",
        "meta_mean_motion": 14.03499984,
        "meta_eccentricity": 0.03088004,
        "meta_inclination": 98.4174,
        "meta_ra_of_asc_node": 149.4715,
        "meta_arg_of_pericenter": 323.8486,
        "meta_mean_anomaly": 214.4661,
        "meta_ephemeris_type": 0,
        "meta_classification_type": "U",
        "meta_norad_cat_id": 31841,
        "meta_element_set_no": 999,
        "meta_rev_at_epoch": 59248,
        "meta_bstar": 0.0025383522,
        "meta_mean_motion_dot": 6.033e-05,
        "meta_mean_motion_ddot": 0,
        "tle_line1": "1 31841U 99025CJF 25340.26488187  .00006033  00000+0  25384-2 0  9995",
        "tle_line2": "2 31841  98.4174 149.4715 0308800 323.8486 214.4661 14.03499984592489"
      },
      "geometry": {
        "type": "Point",
        "coordinates": [
          -174.8071583049813,
          -75.60702194334232
        ]
      }
    }
  ]
}